[
    {
        "Altitude(m)": 717876.781416068,
        "Argument of Periapsis(deg)": 0.006834072711976239,
        "Eccentricity": 0.0,
        "Inclination(deg)": 45.0,
        "Latitude(deg)": -45.14030632162552,
        "Longitude(deg)": 147.77654497187814,
        "Mean Anomaly(deg)": -91.26187001151146,
        "RAAN(deg)": 339.9935488351251,
        "Satellite Name": "Constellation 1 1512",
        "Satellite Number": 1512,
        "Semi-Major Axis(m)": 7083131.272910544,
        "Time(s)": 114
    },
    {
        "Altitude(m)": 717877.3061148322,
        "Argument of Periapsis(deg)": 0.006894020718221645,
        "Eccentricity": 0.0,
        "Inclination(deg)": 45.0,
        "Latitude(deg)": -45.141599856663476,
        "Longitude(deg)": 147.8580345775807,
        "Mean Anomaly(deg)": -91.20116887126167,
        "RAAN(deg)": 339.9934922459595,
        "Satellite Name": "Constellation 1 1512",
        "Satellite Number": 1512,
        "Semi-Major Axis(m)": 7083131.272910544,
        "Time(s)": 115
    },
    {
        "Altitude(m)": 717877.8044254134,
        "Argument of Periapsis(deg)": 0.006953968724467052,
        "Eccentricity": 0.0,
        "Inclination(deg)": 45.0,
        "Latitude(deg)": -45.142829260797974,
        "Longitude(deg)": 147.9395279505887,
        "Mean Anomaly(deg)": -91.14046773101174,
        "RAAN(deg)": 339.99343565679396,
        "Satellite Name": "Constellation 1 1512",
        "Satellite Number": 1512,
        "Semi-Major Axis(m)": 7083131.272910544,
        "Time(s)": 116
    },
    {
        "Altitude(m)": 717878.2763459511,
        "Argument of Periapsis(deg)": 0.007013916730712457,
        "Eccentricity": 0.0,
        "Inclination(deg)": 45.0,
        "Latitude(deg)": -45.143994528587505,
        "Longitude(deg)": 148.0210248996877,
        "Mean Anomaly(deg)": -91.0797665907618,
        "RAAN(deg)": 339.9933790676284,
        "Satellite Name": "Constellation 1 1512",
        "Satellite Number": 1512,
        "Semi-Major Axis(m)": 7083131.272910544,
        "Time(s)": 117
    },
    {
        "Altitude(m)": 717878.721874684,
        "Argument of Periapsis(deg)": 0.007073864736957864,
        "Eccentricity": 0.0,
        "Inclination(deg)": 45.0,
        "Latitude(deg)": -45.14509565487385,
        "Longitude(deg)": 148.10252523359912,
        "Mean Anomaly(deg)": -91.01906545051192,
        "RAAN(deg)": 339.99332247846286,
        "Satellite Name": "Constellation 1 1512",
        "Satellite Number": 1512,
        "Semi-Major Axis(m)": 7083131.272910544,
        "Time(s)": 118
    },
    {
        "Altitude(m)": 717879.141009944,
        "Argument of Periapsis(deg)": 0.0071338127432032696,
        "Eccentricity": 0.0,
        "Inclination(deg)": 45.0,
        "Latitude(deg)": -45.146132634781985,
        "Longitude(deg)": 148.18402859288736,
        "Mean Anomaly(deg)": -90.95836431026208,
        "RAAN(deg)": 339.9932658892973,
        "Satellite Name": "Constellation 1 1512",
        "Satellite Number": 1512,
        "Semi-Major Axis(m)": 7083131.272910544,
        "Time(s)": 119
    },
    {
        "Altitude(m)": 717879.5337501622,
        "Argument of Periapsis(deg)": 0.007193760749448674,
        "Eccentricity": 0.0,
        "Inclination(deg)": 45.0,
        "Latitude(deg)": -45.147105463721175,
        "Longitude(deg)": 148.26553512235037,
        "Mean Anomaly(deg)": -90.89766317001208,
        "RAAN(deg)": 339.99320930013164,
        "Satellite Name": "Constellation 1 1512",
        "Satellite Number": 1512,
        "Semi-Major Axis(m)": 7083131.272910544,
        "Time(s)": 120
    },
    {
        "Altitude(m)": 717879.9000938763,
        "Argument of Periapsis(deg)": 0.007253708755694079,
        "Eccentricity": 0.0,
        "Inclination(deg)": 45.0,
        "Latitude(deg)": -45.14801413738353,
        "Longitude(deg)": 148.3470444624413,
        "Mean Anomaly(deg)": -90.83696202976219,
        "RAAN(deg)": 339.9931527109661,
        "Satellite Name": "Constellation 1 1512",
        "Satellite Number": 1512,
        "Semi-Major Axis(m)": 7083131.272910544,
        "Time(s)": 121
    },
    {
        "Altitude(m)": 717880.2400397065,
        "Argument of Periapsis(deg)": 0.0073136567619394854,
        "Eccentricity": 0.0,
        "Inclination(deg)": 45.0,
        "Latitude(deg)": -45.148858651745165,
        "Longitude(deg)": 148.42855642166012,
        "Mean Anomaly(deg)": -90.77626088951236,
        "RAAN(deg)": 339.99309612180053,
        "Satellite Name": "Constellation 1 1512",
        "Satellite Number": 1512,
        "Semi-Major Axis(m)": 7083131.272910544,
        "Time(s)": 122
    },
    {
        "Altitude(m)": 717880.5535863813,
        "Argument of Periapsis(deg)": 0.0073736047681848904,
        "Eccentricity": 0.0,
        "Inclination(deg)": 45.0,
        "Latitude(deg)": -45.149639003066,
        "Longitude(deg)": 148.51007080846028,
        "Mean Anomaly(deg)": -90.71555974926243,
        "RAAN(deg)": 339.993039532635,
        "Satellite Name": "Constellation 1 1512",
        "Satellite Number": 1512,
        "Semi-Major Axis(m)": 7083131.272910544,
        "Time(s)": 123
    },
    {
        "Altitude(m)": 717880.840732719,
        "Argument of Periapsis(deg)": 0.007433552774430298,
        "Eccentricity": 0.0,
        "Inclination(deg)": 45.0,
        "Latitude(deg)": -45.15035518788979,
        "Longitude(deg)": 148.59158743125127,
        "Mean Anomaly(deg)": -90.65485860901249,
        "RAAN(deg)": 339.99298294346943,
        "Satellite Name": "Constellation 1 1512",
        "Satellite Number": 1512,
        "Semi-Major Axis(m)": 7083131.272910544,
        "Time(s)": 124
    },
    {
        "Altitude(m)": 717881.1014776401,
        "Argument of Periapsis(deg)": 0.007493500780675703,
        "Eccentricity": 0.0,
        "Inclination(deg)": 45.0,
        "Latitude(deg)": -45.15100720304427,
        "Longitude(deg)": 148.67310609840246,
        "Mean Anomaly(deg)": -90.5941574687626,
        "RAAN(deg)": 339.99292635430385,
        "Satellite Name": "Constellation 1 1512",
        "Satellite Number": 1512,
        "Semi-Major Axis(m)": 7083131.272910544,
        "Time(s)": 125
    },
    {
        "Altitude(m)": 717881.335820166,
        "Argument of Periapsis(deg)": 0.007553448786921108,
        "Eccentricity": 0.0,
        "Inclination(deg)": 45.0,
        "Latitude(deg)": -45.151595045641045,
        "Longitude(deg)": 148.7546264501503,
        "Mean Anomaly(deg)": -90.53345632851271,
        "RAAN(deg)": 339.99286976513827,
        "Satellite Name": "Constellation 1 1512",
        "Satellite Number": 1512,
        "Semi-Major Axis(m)": 7083131.272910544,
        "Time(s)": 126
    },
    {
        "Altitude(m)": 717881.5437594083,
        "Argument of Periapsis(deg)": 0.007613396793166514,
        "Eccentricity": 0.0,
        "Inclination(deg)": 45.0,
        "Latitude(deg)": -45.15211871307634,
        "Longitude(deg)": 148.83614863098836,
        "Mean Anomaly(deg)": -90.47275518826278,
        "RAAN(deg)": 339.9928131759727,
        "Satellite Name": "Constellation 1 1512",
        "Satellite Number": 1512,
        "Semi-Major Axis(m)": 7083131.272910544,
        "Time(s)": 127
    },
    {
        "Altitude(m)": 717881.7252945813,
        "Argument of Periapsis(deg)": 0.007673344799411918,
        "Eccentricity": 0.0,
        "Inclination(deg)": 45.0,
        "Latitude(deg)": -45.15257820302998,
        "Longitude(deg)": 148.91767228108972,
        "Mean Anomaly(deg)": -90.41205404801289,
        "RAAN(deg)": 339.99275658680716,
        "Satellite Name": "Constellation 1 1512",
        "Satellite Number": 1512,
        "Semi-Major Axis(m)": 7083131.272910544,
        "Time(s)": 128
    },
    {
        "Altitude(m)": 717881.8804249906,
        "Argument of Periapsis(deg)": 0.007733292805657325,
        "Eccentricity": 0.0,
        "Inclination(deg)": 45.0,
        "Latitude(deg)": -45.1529735134661,
        "Longitude(deg)": 148.99919720869823,
        "Mean Anomaly(deg)": -90.35135290776306,
        "RAAN(deg)": 339.9926999976415,
        "Satellite Name": "Constellation 1 1512",
        "Satellite Number": 1512,
        "Semi-Major Axis(m)": 7083131.272910544,
        "Time(s)": 129
    },
    {
        "Altitude(m)": 717882.0091500487,
        "Argument of Periapsis(deg)": 0.00779324081190273,
        "Eccentricity": 0.0,
        "Inclination(deg)": 45.0,
        "Latitude(deg)": -45.15330464263319,
        "Longitude(deg)": 149.08072322203515,
        "Mean Anomaly(deg)": -90.29065176751313,
        "RAAN(deg)": 339.992643408476,
        "Satellite Name": "Constellation 1 1512",
        "Satellite Number": 1512,
        "Semi-Major Axis(m)": 7083131.272910544,
        "Time(s)": 130
    },
    {
        "Altitude(m)": 717882.1114692581,
        "Argument of Periapsis(deg)": 0.007853188818148135,
        "Eccentricity": 0.0,
        "Inclination(deg)": 45.0,
        "Latitude(deg)": -45.15357158906385,
        "Longitude(deg)": 149.1622501293015,
        "Mean Anomaly(deg)": -90.22995062726324,
        "RAAN(deg)": 339.9925868193104,
        "Satellite Name": "Constellation 1 1512",
        "Satellite Number": 1512,
        "Semi-Major Axis(m)": 7083131.272910544,
        "Time(s)": 131
    },
    {
        "Altitude(m)": 717882.1873822202,
        "Argument of Periapsis(deg)": 0.007913136824393542,
        "Eccentricity": 0.0,
        "Inclination(deg)": 45.0,
        "Latitude(deg)": -45.15377435157514,
        "Longitude(deg)": 149.2437777386829,
        "Mean Anomaly(deg)": -90.16924948701336,
        "RAAN(deg)": 339.99253023014484,
        "Satellite Name": "Constellation 1 1512",
        "Satellite Number": 1512,
        "Semi-Major Axis(m)": 7083131.272910544,
        "Time(s)": 132
    }
]